NORAD_CAT_ID,OBJECT_NAME,OBJECT_TYPE,EPOCH,MEAN_MOTION,ECCENTRICITY,INCLINATION,RA_OF_ASC_NODE,ARG_OF_PERICENTER,MEAN_ANOMALY,BSTAR,MEAN_MOTION_DOT,MEAN_MOTION_DDOT,TLE_LINE0,TLE_LINE1,TLE_LINE2,SEMIMAJOR_AXIS,PERIOD,APOGEE,PERIGEE,DECAYED
51149.0,STARLINK-3360,PAYLOAD,2023-04-25 11:58:00,15.08781567,0.0001029,53.2162,339.1218,71.3949,288.7155,-0.0031839,-0.00050523,0.0,0 STARLINK-3360,1 51149U 22005AX  23115.49862136 -.00050523  00000-0 -31839-2 0  9993,2 51149  53.2162 339.1218 0001029  71.3949 288.7155 15.08781567 70206,6918.059,95.441,540.636,539.212,0.0
51149.0,STARLINK-3360,PAYLOAD,2023-04-25 23:05:45,15.08758506,0.0001063,53.2165,337.0404,104.3642,255.7468,0.00045908,7.01e-05,0.0,0 STARLINK-3360,1 51149U 22005AX  23115.96232880  .00007010  00000-0  45908-3 0  9996,2 51149  53.2165 337.0404 0001063 104.3642 255.7468 15.08758506 71386,6918.129,95.443,540.73,539.259,0.0
51149.0,STARLINK-3360,PAYLOAD,2023-04-26 10:13:28,15.08810256,0.0001103,53.2165,334.9587,124.075,236.0347,0.002399,0.00038067,0.0,0 STARLINK-3360,1 51149U 22005AX  23116.42602072  .00038067  00000-0  23990-2 0  9994,2 51149  53.2165 334.9587 0001103 124.0750 236.0347 15.08810256 70342,6917.971,95.439,540.599,539.073,0.0
51149.0,STARLINK-3360,PAYLOAD,2023-04-26 21:21:09,15.08852747,6.62e-05,53.2168,332.8777,137.9859,222.1184,0.0014178,0.00022356,0.0,0 STARLINK-3360,1 51149U 22005AX  23116.88969441  .00022356  00000-0  14178-2 0  9992,2 51149  53.2168 332.8777 0000662 137.9859 222.1184 15.08852747 70419,6917.841,95.437,540.164,539.248,0.0
51149.0,STARLINK-3360,PAYLOAD,2023-04-27 02:07:18,15.08874169,8.97e-05,53.2166,331.9858,133.1426,226.9642,0.0017522,0.00027734,0.0,0 STARLINK-3360,1 51149U 22005AX  23117.08840991  .00027734  00000-0  17522-2 0  9994,2 51149  53.2166 331.9858 0000897 133.1426 226.9642 15.08874169 71554,6917.776,95.435,540.261,539.02,0.0
51149.0,STARLINK-3360,PAYLOAD,2023-04-27 10:04:14,15.08874001,0.0001538,53.2163,330.4999,127.1813,232.932,0.0013371,0.00021076,0.0,0 STARLINK-3360,1 51149U 22005AX  23117.41960670  .00021076  00000-0  13371-2 0  9999,2 51149  53.2163 330.4999 0001538 127.1813 232.9320 15.08874001 70494,6917.776,95.435,540.705,538.578,0.0
51149.0,STARLINK-3360,PAYLOAD,2023-04-27 16:25:46,15.08871847,7.99e-05,53.2166,329.3091,121.7031,238.4039,0.0004525,6.927e-05,0.0,0 STARLINK-3360,1 51149U 22005AX  23117.68456213  .00006927  00000-0  45250-3 0  9991,2 51149  53.2166 329.3091 0000799 121.7031 238.4039 15.08871847 71648,6917.783,95.436,540.201,539.095,0.0
51149.0,STARLINK-3360,PAYLOAD,2023-04-28 06:44:13,15.08865268,7.74e-05,53.2164,326.634,109.4417,250.6658,0.00038176,5.797e-05,0.0,0 STARLINK-3360,1 51149U 22005AX  23118.28071508  .00005797  00000-0  38176-3 0  9991,2 51149  53.2164 326.6340 0000774 109.4417 250.6658 15.08865268 71730,6917.803,95.436,540.204,539.133,0.0
51149.0,STARLINK-3360,PAYLOAD,2023-04-28 21:02:42,15.08843107,8.6e-05,53.2163,323.9568,116.0815,244.0266,0.00029068,4.342e-05,0.0,0 STARLINK-3360,1 51149U 22005AX  23118.87687644  .00004342  00000-0  29068-3 0  9995,2 51149  53.2163 323.9568 0000860 116.0815 244.0266 15.08843107 71823,6917.871,95.437,540.331,539.141,0.0
51149.0,STARLINK-3360,PAYLOAD,2023-04-29 06:35:01,15.08840801,9.73e-05,53.2145,322.1717,101.614,258.4961,6.4442e-05,7.38e-06,0.0,0 STARLINK-3360,1 51149U 22005AX  23119.27431798  .00000738  00000-0  64442-4 0  9998,2 51149  53.2145 322.1717 0000973 101.6140 258.4961 15.08840801 70778,6917.878,95.438,540.416,539.07,0.0
51149.0,STARLINK-3360,PAYLOAD,2023-04-30 00:04:15,15.08851388,9.05e-05,53.2169,318.8997,94.8615,265.248,0.00051558,7.93e-05,0.0,0 STARLINK-3360,1 51149U 22005AX  23120.00295600  .00007930  00000-0  51558-3 0  9995,2 51149  53.2169 318.8997 0000905  94.8615 265.2480 15.08851388 71990,6917.846,95.437,540.337,539.085,0.0
51149.0,STARLINK-3360,PAYLOAD,2023-04-30 20:44:16,15.08839122,8.37e-05,53.2162,315.0331,89.8344,270.2744,0.00010728,1.42e-05,0.0,0 STARLINK-3360,1 51149U 22005AX  23120.86407975  .00001420  00000-0  10728-3 0  9991,2 51149  53.2162 315.0331 0000837  89.8344 270.2744 15.08839122 72128,6917.883,95.438,540.327,539.169,0.0
51149.0,STARLINK-3360,PAYLOAD,2023-05-01 12:38:08,15.08840028,7.87e-05,53.2165,312.0583,105.7686,254.3392,0.00012898,1.766e-05,0.0,0 STARLINK-3360,1 51149U 22005AX  23121.52648165  .00001766  00000-0  12898-3 0  9996,2 51149  53.2165 312.0583 0000787 105.7686 254.3392 15.08840028 71115,6917.88,95.438,540.29,539.201,0.0
51149.0,STARLINK-3360,PAYLOAD,2023-05-01 18:59:40,15.08846386,6.3e-05,53.2151,310.8727,100.5452,259.5611,0.00018594,2.673e-05,0.0,0 STARLINK-3360,1 51149U 22005AX  23121.79143837  .00002673  00000-0  18594-3 0  9998,2 51149  53.2151 310.8727 0000630 100.5452 259.5611 15.08846386 71155,6917.861,95.437,540.162,539.29,0.0
51149.0,STARLINK-3360,PAYLOAD,2023-05-01 22:10:26,15.08848886,6.79e-05,53.2153,310.277,108.5532,251.5534,0.00027081,4.026e-05,0.0,0 STARLINK-3360,1 51149U 22005AX  23121.92391727  .00004026  00000-0  27081-3 0  9991,2 51149  53.2153 310.2770 0000679 108.5532 251.5534 15.08848886 72287,6917.853,95.437,540.188,539.249,0.0
51149.0,STARLINK-3360,PAYLOAD,2023-05-02 12:28:54,15.08842369,7.28e-05,53.2149,307.6002,95.2805,264.827,0.00018262,2.62e-05,0.0,0 STARLINK-3360,1 51149U 22005AX  23122.52007998  .00002620  00000-0  18262-3 0  9991,2 51149  53.2149 307.6002 0000728  95.2805 264.8270 15.08842369 72374,6917.873,95.437,540.242,539.235,0.0
51149.0,STARLINK-3360,PAYLOAD,2023-05-02 18:50:27,15.08847205,7.74e-05,53.2152,306.411,84.9918,275.1163,0.00021314,3.107e-05,0.0,0 STARLINK-3360,1 51149U 22005AX  23122.78503749  .00003107  00000-0  21314-3 0  9997,2 51149  53.2152 306.4110 0000774  84.9918 275.1163 15.08847205 71308,6917.858,95.437,540.259,539.188,0.0
51149.0,STARLINK-3360,PAYLOAD,2023-05-03 12:19:41,15.08841022,8.65e-05,53.2156,303.1416,80.0592,280.0498,4.6446e-05,4.52e-06,0.0,0 STARLINK-3360,1 51149U 22005AX  23123.51368022  .00000452  00000-0  46446-4 0  9996,2 51149  53.2156 303.1416 0000865  80.0592 280.0498 15.08841022 71410,6917.877,95.437,540.341,539.144,0.0
51149.0,STARLINK-3360,PAYLOAD,2023-05-03 18:41:14,15.08852413,0.0001202,53.2164,301.9491,115.4248,244.6868,-0.00017201,-3.025e-05,0.0,0 STARLINK-3360,1 51149U 22005AX  23123.77863702 -.00003025  00000-0 -17201-3 0  9996,2 51149  53.2164 301.9491 0001202 115.4248 244.6868 15.08852413 72565,6917.842,95.437,540.539,538.876,0.0
51149.0,STARLINK-3360,PAYLOAD,2023-05-04 07:24:19,15.08839951,7.83e-05,53.2163,299.572,93.3401,266.7681,6.8222e-05,7.98e-06,0.0,0 STARLINK-3360,1 51149U 22005AX  23124.30856040  .00000798  00000-0  68222-4 0  9995,2 51149  53.2163 299.5720 0000783  93.3401 266.7681 15.08839951 72648,6917.881,95.438,540.287,539.204,0.0
51149.0,STARLINK-3360,PAYLOAD,2023-05-04 18:32:00,15.08851984,0.0001023,53.2164,297.4892,112.8884,247.2217,0.00012378,1.683e-05,0.0,0 STARLINK-3360,1 51149U 22005AX  23124.77223041  .00001683  00000-0  12378-3 0  9999,2 51149  53.2164 297.4892 0001023 112.8884 247.2217 15.08851984 72713,6917.844,95.437,540.416,539.001,0.0
51149.0,STARLINK-3360,PAYLOAD,2023-05-05 07:15:06,15.08836995,0.0001036,53.2162,295.1128,87.4037,272.7073,0.00012556,1.711e-05,0.0,0 STARLINK-3360,1 51149U 22005AX  23125.30216074  .00001711  00000-0  12556-3 0  9997,2 51149  53.2162 295.1128 0001036  87.4037 272.7073 15.08836995 72795,6917.89,95.438,540.471,539.038,0.0
51149.0,STARLINK-3360,PAYLOAD,2023-05-05 18:22:48,15.08836209,7.94e-05,53.2156,293.0305,80.7543,279.3539,2.4051e-05,9.5e-07,0.0,0 STARLINK-3360,1 51149U 22005AX  23125.76584129  .00000095  00000-0  24051-4 0  9994,2 51149  53.2156 293.0305 0000794  80.7543 279.3539 15.08836209 71753,6917.892,95.438,540.306,539.208,0.0
51149.0,STARLINK-3360,PAYLOAD,2023-05-06 10:16:40,15.08841774,7.83e-05,53.2157,290.0573,78.4013,281.7067,9.4043e-05,1.209e-05,0.0,0 STARLINK-3360,1 51149U 22005AX  23126.42824083  .00001209  00000-0  94043-4 0  9990,2 51149  53.2157 290.0573 0000783  78.4013 281.7067 15.08841774 71859,6917.875,95.437,540.282,539.198,0.0
51149.0,STARLINK-3360,PAYLOAD,2023-05-06 16:38:12,15.08846326,7.88e-05,53.2156,288.868,82.4536,277.6546,0.00033204,5.002e-05,0.0,0 STARLINK-3360,1 51149U 22005AX  23126.69320028  .00005002  00000-0  33204-3 0  9995,2 51149  53.2156 288.8680 0000788  82.4536 277.6546 15.08846326 73005,6917.861,95.437,540.271,539.181,0.0
51149.0,STARLINK-3360,PAYLOAD,2023-05-07 03:45:54,15.08842643,7.99e-05,53.215,286.7853,95.8505,264.2578,0.00031923,4.797e-05,0.0,0 STARLINK-3360,1 51149U 22005AX  23127.15688184  .00004797  00000-0  31923-3 0  9993,2 51149  53.2150 286.7853 0000799  95.8505 264.2578 15.08842643 73076,6917.872,95.437,540.29,539.185,0.0
51149.0,STARLINK-3360,PAYLOAD,2023-05-07 18:04:23,15.08836439,9.41e-05,53.2162,284.1106,83.709,276.4009,0.0001321,1.815e-05,0.0,0 STARLINK-3360,1 51149U 22005AX  23127.75304706  .00001815  00000-0  13210-3 0  9991,2 51149  53.2162 284.1106 0000941  83.7090 276.4009 15.08836439 73166,6917.891,95.438,540.407,539.105,0.0
51149.0,STARLINK-3360,PAYLOAD,2023-05-08 16:19:47,15.0884409,8.19e-05,53.2156,279.9467,91.2831,268.8255,0.00017537,2.505e-05,0.0,0 STARLINK-3360,1 51149U 22005AX  23128.68040540  .00002505  00000-0  17537-3 0  9990,2 51149  53.2156 279.9467 0000819  91.2831 268.8255 15.08844090 72194,6917.868,95.437,540.299,539.166,0.0
51149.0,STARLINK-3360,PAYLOAD,2023-05-09 11:24:25,15.08836272,7.19e-05,53.2159,276.3778,93.5362,266.5712,0.00013059,1.791e-05,0.0,0 STARLINK-3360,1 51149U 22005AX  23129.47528969  .00001791  00000-0  13059-3 0  9995,2 51149  53.2159 276.3778 0000719  93.5362 266.5712 15.08836272 72316,6917.892,95.438,540.254,539.259,0.0
51149.0,STARLINK-3360,PAYLOAD,2023-05-10 11:15:12,15.08836656,8.08e-05,53.2157,271.9163,94.3336,265.7748,3.2382e-05,2.28e-06,0.0,0 STARLINK-3360,1 51149U 22005AX  23130.46889071  .00000228  00000-0  32382-4 0  9995,2 51149  53.2157 271.9163 0000808  94.3336 265.7748 15.08836656 72464,6917.891,95.438,540.315,539.197,0.0
